{
  "type": "FeatureCollection",
  "features": [
    {
      "type": "Feature",
      "properties": {
        "norad_id": 42989,
        "name": "SKYSAT-C9",
        "group": "resource",
        "lat": 22.52896857929931,
        "lon": -47.25396492793817,
        "alt_km": 459.0461568250548,
        "timestamp": "2025-12-25T07:00:33.700168+00:00",
        "meta_object_name": "SKYSAT-C9",
        "meta_object_id": "2017-068C",
        "meta_epoch": "2025-12-24T20:56:58.064064",
        "meta_mean_motion": 15.36350651,
        "meta_eccentricity": 0.00102703,
        "meta_inclination": 97.4196,
        "meta_ra_of_asc_node": 129.2247,
        "meta_arg_of_pericenter": 48.6623,
        "meta_mean_anomaly": 311.5503,
        "meta_ephemeris_type": 0,
        "meta_classification_type": "U",
        "meta_norad_cat_id": 42989,
        "meta_element_set_no": 999,
        "meta_rev_at_epoch": 45594,
        "meta_bstar": 0.00039865408,
        "meta_mean_motion_dot": 0.00014082,
        "meta_mean_motion_ddot": 0,
        "tle_line1": "1 42989U 17068C   25358.87289426  .00014082  00000+0  39865-3 0  9991",
        "tle_line2": "2 42989  97.4196 129.2247 0010270  48.6623 311.5503 15.36350651455946"
      },
      "geometry": {
        "type": "Point",
        "coordinates": [
          -47.25396492793817,
          22.52896857929931
        ]
      }
    },
    {
      "type": "Feature",
      "properties": {
        "norad_id": 42990,
        "name": "SKYSAT-C8",
        "group": "resource",
        "lat": -14.225307021396844,
        "lon": 131.24484223919188,
        "alt_km": 470.8858073293313,
        "timestamp": "2025-12-25T07:00:33.700178+00:00",
        "meta_object_name": "SKYSAT-C8",
        "meta_object_id": "2017-068D",
        "meta_epoch": "2025-12-24T20:06:25.740288",
        "meta_mean_motion": 15.33182235,
        "meta_eccentricity": 9.448e-05,
        "meta_inclination": 97.4288,
        "meta_ra_of_asc_node": 128.8929,
        "meta_arg_of_pericenter": 271.5017,
        "meta_mean_anomaly": 88.6117,
        "meta_ephemeris_type": 0,
        "meta_classification_type": "U",
        "meta_norad_cat_id": 42990,
        "meta_element_set_no": 999,
        "meta_rev_at_epoch": 45556,
        "meta_bstar": 0.00038956306,
        "meta_mean_motion_dot": 0.00012417,
        "meta_mean_motion_ddot": 0,
        "tle_line1": "1 42990U 17068D   25358.83779792  .00012417  00000+0  38956-3 0  9999",
        "tle_line2": "2 42990  97.4288 128.8929 0000944 271.5017  88.6117 15.33182235455562"
      },
      "geometry": {
        "type": "Point",
        "coordinates": [
          131.24484223919188,
          -14.225307021396844
        ]
      }
    },
    {
      "type": "Feature",
      "properties": {
        "norad_id": 42991,
        "name": "SKYSAT-C7",
        "group": "resource",
        "lat": 5.664279965723666,
        "lon": -48.87843512080306,
        "alt_km": 474.7351403219136,
        "timestamp": "2025-12-25T07:00:33.700188+00:00",
        "meta_object_name": "SKYSAT-C7",
        "meta_object_id": "2017-068E",
        "meta_epoch": "2025-12-24T22:25:01.461216",
        "meta_mean_motion": 15.32579579,
        "meta_eccentricity": 0.00068418,
        "meta_inclination": 97.4295,
        "meta_ra_of_asc_node": 130.0206,
        "meta_arg_of_pericenter": 18.698,
        "meta_mean_anomaly": 341.4512,
        "meta_ephemeris_type": 0,
        "meta_classification_type": "U",
        "meta_norad_cat_id": 42991,
        "meta_element_set_no": 999,
        "meta_rev_at_epoch": 45564,
        "meta_bstar": 0.00037998659,
        "meta_mean_motion_dot": 0.00011889,
        "meta_mean_motion_ddot": 0,
        "tle_line1": "1 42991U 17068E   25358.93404469  .00011889  00000+0  37999-3 0  9995",
        "tle_line2": "2 42991  97.4295 130.0206 0006841  18.6980 341.4512 15.32579579455643"
      },
      "geometry": {
        "type": "Point",
        "coordinates": [
          -48.87843512080306,
          5.664279965723666
        ]
      }
    },
    {
      "type": "Feature",
      "properties": {
        "norad_id": 42992,
        "name": "SKYSAT-C6",
        "group": "resource",
        "lat": -71.60111524055816,
        "lon": -72.30061446493202,
        "alt_km": 480.88707686625,
        "timestamp": "2025-12-25T07:00:33.700198+00:00",
        "meta_object_name": "SKYSAT-C6",
        "meta_object_id": "2017-068F",
        "meta_epoch": "2025-12-24T20:30:02.164608",
        "meta_mean_motion": 15.31732317,
        "meta_eccentricity": 0.00047662,
        "meta_inclination": 97.4329,
        "meta_ra_of_asc_node": 130.3693,
        "meta_arg_of_pericenter": 49.5424,
        "meta_mean_anomaly": 310.6233,
        "meta_ephemeris_type": 0,
        "meta_classification_type": "U",
        "meta_norad_cat_id": 42992,
        "meta_element_set_no": 999,
        "meta_rev_at_epoch": 45561,
        "meta_bstar": 0.00038047386,
        "meta_mean_motion_dot": 0.00011588,
        "meta_mean_motion_ddot": 0,
        "tle_line1": "1 42992U 17068F   25358.85419172  .00011588  00000+0  38047-3 0  9995",
        "tle_line2": "2 42992  97.4329 130.3693 0004766  49.5424 310.6233 15.31732317455610"
      },
      "geometry": {
        "type": "Point",
        "coordinates": [
          -72.30061446493202,
          -71.60111524055816
        ]
      }
    },
    {
      "type": "Feature",
      "properties": {
        "norad_id": 43111,
        "name": "CARTOSAT-2F",
        "group": "resource",
        "lat": 17.966191018643045,
        "lon": -120.84954653503792,
        "alt_km": 507.932997758493,
        "timestamp": "2025-12-25T07:00:33.700208+00:00",
        "meta_object_name": "CARTOSAT-2F",
        "meta_object_id": "2018-004A",
        "meta_epoch": "2025-12-24T22:23:45.641760",
        "meta_mean_motion": 15.19236745,
        "meta_eccentricity": 0.00016326,
        "meta_inclination": 97.4298,
        "meta_ra_of_asc_node": 56.3722,
        "meta_arg_of_pericenter": 110.3275,
        "meta_mean_anomaly": 249.8135,
        "meta_ephemeris_type": 0,
        "meta_classification_type": "U",
        "meta_norad_cat_id": 43111,
        "meta_element_set_no": 999,
        "meta_rev_at_epoch": 44087,
        "meta_bstar": 0.00018878082,
        "meta_mean_motion_dot": 3.909e-05,
        "meta_mean_motion_ddot": 0,
        "tle_line1": "1 43111U 18004A   25358.93316715  .00003909  00000+0  18878-3 0  9996",
        "tle_line2": "2 43111  97.4298  56.3722 0001632 110.3275 249.8135 15.19236745440875"
      },
      "geometry": {
        "type": "Point",
        "coordinates": [
          -120.84954653503792,
          17.966191018643045
        ]
      }
    },
    {
      "type": "Feature",
      "properties": {
        "norad_id": 43259,
        "name": "GAOFEN-1 02",
        "group": "resource",
        "lat": 23.148140305645693,
        "lon": -119.43396676660518,
        "alt_km": 638.3837963216529,
        "timestamp": "2025-12-25T07:00:33.700218+00:00",
        "meta_object_name": "GAOFEN-1 02",
        "meta_object_id": "2018-031A",
        "meta_epoch": "2025-12-24T23:47:48.306912",
        "meta_mean_motion": 14.76439065,
        "meta_eccentricity": 0.00026345,
        "meta_inclination": 98.0786,
        "meta_ra_of_asc_node": 56.7841,
        "meta_arg_of_pericenter": 172.3077,
        "meta_mean_anomaly": 187.8174,
        "meta_ephemeris_type": 0,
        "meta_classification_type": "U",
        "meta_norad_cat_id": 43259,
        "meta_element_set_no": 999,
        "meta_rev_at_epoch": 41699,
        "meta_bstar": 0.00014665953,
        "meta_mean_motion_dot": 9.68e-06,
        "meta_mean_motion_ddot": 0,
        "tle_line1": "1 43259U 18031A   25358.99153133  .00000968  00000+0  14666-3 0  9991",
        "tle_line2": "2 43259  98.0786  56.7841 0002634 172.3077 187.8174 14.76439065416996"
      },
      "geometry": {
        "type": "Point",
        "coordinates": [
          -119.43396676660518,
          23.148140305645693
        ]
      }
    },
    {
      "type": "Feature",
      "properties": {
        "norad_id": 43260,
        "name": "GAOFEN-1 03",
        "group": "resource",
        "lat": -81.49321985751698,
        "lon": 128.6839100045474,
        "alt_km": 646.709098706443,
        "timestamp": "2025-12-25T07:00:33.700229+00:00",
        "meta_object_name": "GAOFEN-1 03",
        "meta_object_id": "2018-031B",
        "meta_epoch": "2025-12-24T23:16:19.110432",
        "meta_mean_motion": 14.76461091,
        "meta_eccentricity": 0.00017275,
        "meta_inclination": 98.0781,
        "meta_ra_of_asc_node": 56.6384,
        "meta_arg_of_pericenter": 256.1208,
        "meta_mean_anomaly": 103.9809,
        "meta_ephemeris_type": 0,
        "meta_classification_type": "U",
        "meta_norad_cat_id": 43260,
        "meta_element_set_no": 999,
        "meta_rev_at_epoch": 41698,
        "meta_bstar": 0.00014304268,
        "meta_mean_motion_dot": 9.44e-06,
        "meta_mean_motion_ddot": 0,
        "tle_line1": "1 43260U 18031B   25358.96966563  .00000944  00000+0  14304-3 0  9992",
        "tle_line2": "2 43260  98.0781  56.6384 0001727 256.1208 103.9809 14.76461091416980"
      },
      "geometry": {
        "type": "Point",
        "coordinates": [
          128.6839100045474,
          -81.49321985751698
        ]
      }
    }
  ]
}